STARLINK-36680          
1 68721U 26081Y   26113.51446462 -.00461685  00000+0 -18092-2 0  9999
2 68721  53.1600 196.1343 0000530 221.3436 138.7550 15.87309485  1467
